FUNCUBE-1 (AO-73)       
1 39444U 13066AE  24169.88367692  .00005806  00000+0  56301-3 0  9997
2 39444  97.7185 128.9616 0049388 137.2077 223.3003 14.92129098570803
UWE-3                   
1 39446U 13066AG  24169.85707562  .00003557  00000+0  39925-3 0  9994
2 39446  97.7807 119.5823 0059308 215.9601 143.7617 14.86131581569393
BRITE-CA1 (TORONTO)     
1 40020U 14033L   24169.83804377  .00001651  00000+0  27201-3 0  9996
2 40020  97.8775 306.9375 0084439  90.1866 270.9016 14.69460541535077
DUCHIFAT-1              
1 40021U 14033M   24168.89507842  .00013118  00000+0  87081-3 0  9992
2 40021  98.0898 152.7116 0015085 101.3700 258.9222 15.07278565544082
NANOSATC-BR1            
1 40024U 14033Q   24169.87361952  .00009775  00000+0  72312-3 0  9999
2 40024  98.0621 142.0029 0006981 156.2207 203.9341 15.03381972543871
QB50P1                  
1 40025U 14033R   24169.88416856  .00006194  00000+0  50533-3 0  9998
2 40025  98.0372 130.6649 0012210 155.7660 204.4139 14.99771326543494
QB50P2                  
1 40032U 14033Y   24168.91866481  .00006381  00000+0  53835-3 0  9998
2 40032  98.0053 121.3627 0009972 149.9739 210.2056 14.98472950542632
PERSEUS-M2              
1 40037U 14033AD  24169.76467051  .00002512  00000+0  26285-3 0  9998
2 40037  97.9270 100.5567 0012857 186.3427 173.7629 14.90492368542415
PERSEUS-M1              
1 40039U 14033AF  24169.78999855  .00002168  00000+0  22893-3 0  9992
2 40039  97.9069  96.6362 0012687 185.7902 174.3171 14.90267466542286
POLYITAN-1              
1 40042U 14033AJ  24168.88678663  .00010185  00000+0  76846-3 0  9992
2 40042  98.0703 133.1588 0015768 126.8742 233.3930 15.02540930542794
TIGRISAT                
1 40043U 14033AK  24168.93598617  .00002585  00000+0  34878-3 0  9993
2 40043  97.6951 331.6769 0054118 305.1451  54.4697 14.78943024537421
AEROCUBE 6A             
1 40045U 14033AM  24168.92410945  .00005286  00000+0  63538-3 0  9997
2 40045  97.6695 342.4144 0049054 282.6093  76.9639 14.83501980537757
AEROCUBE 6B             
1 40046U 14033AN  24168.89260784  .00006403  00000+0  75294-3 0  9992
2 40046  97.6661 341.0887 0047674 278.0115  81.5692 14.84375296537807
UKUBE-1                 
1 40074U 14037F   24169.80518351  .00006901  00000+0  65482-3 0  9996
2 40074  98.3424  99.7657 0005782  77.2048 282.9816 14.93878822538879
BRITE-PL2 (HEWELIUSZ)   
1 40119U 14049B   24169.82225949  .00002862  00000+0  31029-3 0  9991
2 40119  97.8830 269.4852 0015745   7.5311 352.6139 14.88903681532767
CP10 (EXOCUBE)          
1 40380U 15003E   24169.80798181  .00602247  16167-3  12444-2 0  9990
2 40380  99.0845 197.3471 0021468 118.6326 241.7109 15.98767117519553
AEROCUBE 5C             
1 40965U 15058B   24169.87248972  .00002554  00000+0  24476-3 0  9993
2 40965  64.7710 359.5483 0190384 307.9138  50.4887 14.82860674257130
AEROCUBE 7              
1 40966U 15058C   24168.87595747  .00003463  00000+0  31504-3 0  9998
2 40966  64.7688 356.3791 0185209 307.8401  50.6069 14.84744235257066
FOX-1A (AO-85)          
1 40967U 15058D   24169.86584991  .00002634  00000+0  25649-3 0  9990
2 40967  64.7787  13.4316 0189846 303.7213  54.5924 14.82258876  5094
BISONSAT                
1 40968U 15058E   24169.83679993  .00003332  00000+0  30831-3 0  9990
2 40968  64.7790   6.2832 0184632 302.7073  55.6348 14.84258423  7918
SNAP-3 ALICE            
1 40970U 15058G   24169.83519271  .00009860  00000+0  69041-3 0  9992
2 40970  64.7716 323.5329 0155532 300.6012  57.9839 14.96374842  5883
LMRST-SAT               
1 40971U 15058H   24168.89609164  .00002692  00000+0  26133-3 0  9990
2 40971  64.7779  11.9349 0190866 305.4091  52.9318 14.82196052  4956
SNAP-3 EDDIE            
1 40972U 15058J   24168.77613037  .00010582  00000+0  73168-3 0  9999
2 40972  64.7695 320.2653 0156037 301.8759  56.7251 14.96709998  7822
PROPCUBE 3              
1 40973U 15058K   24168.92195825  .00003213  00000+0  29741-3 0  9998
2 40973  64.7721 359.6792 0187289 306.7371  51.6662 14.84003214  5991
SINOD-D 1               
1 40974U 15058L   24169.84450522  .00006144  00000+0  48034-3 0  9991
2 40974  64.7689 331.1803 0168989 304.0806  54.4364 14.91340696  5865
SNAP-3 JIMI             
1 40975U 15058M   24169.88426026  .00004187  00000+0  36009-3 0  9992
2 40975  64.7704 344.7771 0179556 305.3973  53.0476 14.87158498  5130
PROPCUBE 1 (FLORA)      
1 40976U 15058N   24169.83562736  .00002771  00000+0  27837-3 0  9993
2 40976  64.7771  24.4822 0188838 306.3564  52.0242 14.81073398  7898
SINOD-D 3               
1 40977U 15058P   24168.94767164  .00003619  00000+0  34562-3 0  9992
2 40977  64.7768  20.5132 0183515 305.7950  52.6219 14.83051214  5999
VELOX-II                
1 41171U 15077F   24169.86541044  .00237021  00000+0  14246-2 0  9991
2 41171  14.9875  47.3760 0002628 352.7328   7.2963 15.75650579471958
HORYU-4                 
1 41340U 16012D   24168.80950886  .00012712  00000+0  63016-3 0  9998
2 41340  31.0035 338.0691 0010087 331.8278  28.1816 15.16466119458096
RAVAN                   
1 41849U 16067B   24168.45023590  .00011398  00000+0  62739-3 0  9996
2 41849  98.0644 346.0966 0013389  36.0315 324.1815 15.14149929415879
CELTEE 1                
1 41850U 16067C   24168.90063462  .00006468  00000+0  44113-3 0  9998
2 41850  98.1015 338.3829 0001347 147.2017 212.9292 15.06600020415385
OPTICUBE 04             
1 41851U 16067D   24169.68583360  .00003858  00000+0  29246-3 0  9999
2 41851  98.0735 334.6446 0018605  55.4668 304.8309 15.02763073415312
AEROCUBE 8D             
1 41852U 16067E   24168.89036058  .00008461  00000+0  55657-3 0  9999
2 41852  98.1069 338.1225 0006002 108.8605 251.3272 15.07826937415353
AEROCUBE 8C             
1 41853U 16067F   24168.90389167  .00006949  00000+0  45839-3 0  9994
2 41853  98.0879 336.7170 0008392  47.7486 312.4451 15.07781596415345
PROMETHEUS 2-1          
1 41854U 16067G   24169.75497824  .00015140  00000+0  76600-3 0  9992
2 41854  98.0996 344.9722 0013000  59.6551 300.5964 15.17063525415823
PROMETHEUS 2-3          
1 41855U 16067H   24169.75126189  .00014905  00000+0  75528-3 0  9992
2 41855  98.0925 344.4561 0011252  69.6924 290.5516 15.17031657415826
DIDO-2                  
1 42000U 17008BE  24168.74396709  .00308981  37511-4  97565-3 0  9993
2 42000  97.1279 230.6387 0005392 185.1832 174.9387 15.91267498408732
AALTO-1                 
1 42775U 17036L   24168.64375427  .00101879  00000+0  90199-3 0  9997
2 42775  97.1027 198.2682 0007096 176.3543 183.7772 15.68269803389025
URSA MAIOR              
1 42776U 17036M   24169.83887013  .00567791  14101-3  12218-2 0  9994
2 42776  97.0950 204.2290 0009022 195.7865 164.3133 15.98428957389516
CORVUS BC2              
1 42846U 17042X   24168.52117642  .00004151  00000+0  35835-3 0  9994
2 42846  97.3735 353.6610 0009494  67.8093 292.4137 14.97727730377342
CORVUS BC1              
1 42847U 17042Y   24168.74952237  .00003767  00000+0  32422-3 0  9997
2 42847  97.3748 354.2801 0009656  64.2563 295.9656 14.97894083377394
MIRATA                  
1 43015U 17073C   24169.60436728  .00014775  00000+0  69951-3 0  9995
2 43015  97.5969  54.3432 0167304 259.3319  98.9031 15.07832551356397
MAKERSAT 0              
1 43016U 17073D   24169.62483610  .00009659  00000+0  55277-3 0  9991
2 43016  97.5840  48.5966 0193032 281.0777  76.8793 14.98387462355978
GOMX-4B                 
1 43196U 18015E   24169.74234642  .00054965  00000+0  58324-3 0  9995
2 43196  97.6055 343.3994 0006328 300.4790  59.5843 15.63900877355614
GOMX-4A                 
1 43197U 18015F   24169.79146647  .00127283  00000+0  79186-3 0  9991
2 43197  97.5954 348.5873 0005806 274.5578  85.5024 15.76569042355978
CICERO 10               
1 43690U 18088A   24168.56138260  .00236209  00000+0  10632-2 0  9994
2 43690  85.0044 179.7312 0005104 189.4513 170.6667 15.83452137312116
SIRION PATHFINDER-2     
1 43759U 18099B   24168.89385809  .00005730  00000+0  43206-3 0  9998
2 43759  97.5304 225.0439 0009569 287.8149  72.2032 15.02798272302465
CORVUS BC4              
1 43767U 18099K   24168.86027424  .00004739  00000+0  36469-3 0  9991
2 43767  97.5131 222.2368 0009793   3.6172 356.5122 15.02108181302340
MOVE-II                 
1 43780U 18099Y   24168.89339850  .00019724  00000+0  10326-2 0  9991
2 43780  97.5219 231.8829 0005152 348.8922  11.2196 15.15847293302885
SPACEBEE-7              
1 43816U 18099BL  24169.60119815  .00012723  00000+0  75011-3 0  9993
2 43816  97.5483 233.2943 0008545 284.1529  75.8752 15.11676851302470
SPACEBEE-6              
1 43818U 18099BN  24169.67574005  .00027796  00000+0  11636-2 0  9996
2 43818  97.5408 238.7230 0007204 276.9846  83.0571 15.23501230302987
SHIELDS 1               
1 43850U 18104B   24168.79797020  .00015497  00000+0  41458-3 0  9996
2 43850  85.0227 283.3732 0012325  78.2410 282.0222 15.37837034306108
SONATE                  
1 44400U 19038Q   24168.94234361  .00021178  00000+0  63804-3 0  9998
2 44400  97.7118 163.0258 0018392 106.4326 253.8939 15.34189745274040
LUCKY-7                 
1 44406U 19038W   24168.91242824  .00040969  00000+0  88571-3 0  9991
2 44406  97.7012 167.0890 0015699  94.0295 266.2747 15.44256079274321
DUCHIFAT-3              
1 44854U 19089C   24169.78369883  .00014096  00000+0  71148-3 0  9999
2 44854  36.9584  45.3962 0004231  80.6183 279.5042 15.16486768248293
M2 PATHFINDER           
1 45727U 20037E   24168.91861923  .00004207  00000+0  36845-3 0  9998
2 45727  97.7778 345.3541 0012752 120.8866 239.3611 14.97177137215904
NETSAT-4                
1 46504U 20068U   24169.86354876  .00009063  00000+0  48453-3 0  9998
2 46504  97.8053 127.0208 0010063  13.6230 346.5271 15.15278295204276
